COMMENT,ORIGINATOR,NORAD_CAT_ID,OBJECT_NAME,OBJECT_TYPE,CLASSIFICATION_TYPE,INTLDES,EPOCH,EPOCH_MICROSECONDS,MEAN_MOTION,ECCENTRICITY,INCLINATION,RA_OF_ASC_NODE,ARG_OF_PERICENTER,MEAN_ANOMALY,EPHEMERIS_TYPE,ELEMENT_SET_NO,REV_AT_EPOCH,BSTAR,MEAN_MOTION_DOT,MEAN_MOTION_DDOT,FILE,TLE_LINE0,TLE_LINE1,TLE_LINE2,OBJECT_ID,OBJECT_NUMBER,SEMIMAJOR_AXIS,PERIOD,APOGEE,PERIGEE,DECAYED
"GENERATED VIA SPACETRACK.ORG API","18 SPCS","48886","SPACEBEE-102","PAYLOAD","U","21059H","2021-11-30 15:25:41","962656","15.12627425","0.0010132","97.5324","101.169","75.4414","284.794","0","999","2385","0.00019899","0.00003415","0","3228256","0 SPACEBEE-102","1 48886U 21059H   21334.64284679  .00003415  00000-0  19899-3 0  9992","2 48886  97.5324 101.1690 0010132  75.4414 284.7940 15.12627425 23853","2021-059H","48886","6906.328","95.199","535.190","521.195","0"
"GENERATED VIA SPACETRACK.ORG API","18 SPCS","48886","SPACEBEE-102","PAYLOAD","U","21059H","2021-12-01 07:18:17","149824","15.12634065","0.0010108","97.5325","101.8221","73.4007","286.8333","0","999","2395","0.0002363","0.00004068","0","3229018","0 SPACEBEE-102","1 48886U 21059H   21335.30436516  .00004068  00000-0  23630-3 0  9998","2 48886  97.5325 101.8221 0010108  73.4007 286.8333 15.12634065 23958","2021-059H","48886","6906.308","95.198","535.154","521.192","0"
"GENERATED VIA SPACETRACK.ORG API","18 SPCS","48886","SPACEBEE-102","PAYLOAD","U","21059H","2021-12-01 07:18:17","149824","15.12634065","0.0010108","97.5325","101.8221","73.4007","286.8333","0","999","2395","0.0002363","0.00004068","0","3229140","0 SPACEBEE-102","1 48886U 21059H   21335.30436516  .00004068  00000-0  23630-3 0  9998","2 48886  97.5325 101.8221 0010108  73.4007 286.8333 15.12634065 23958","2021-059H","48886","6906.308","95.198","535.154","521.192","0"
"GENERATED VIA SPACETRACK.ORG API","18 SPCS","48886","SPACEBEE-102","PAYLOAD","U","21059H","2021-12-01 21:35:36","691872","15.12637198","0.0010089","97.5326","102.4099","71.6704","288.5624","0","999","2404","0.0002157","0.00003708","0","3229416","0 SPACEBEE-102","1 48886U 21059H   21335.89973023  .00003708  00000-0  21570-3 0  9992","2 48886  97.5326 102.4099 0010089  71.6704 288.5624 15.12637198 24044","2021-059H","48886","6906.298","95.198","535.131","521.195","0"
"GENERATED VIA SPACETRACK.ORG API","18 SPCS","48886","SPACEBEE-102","PAYLOAD","U","21059H","2021-12-02 07:07:09","600960","15.12641012","0.0010085","97.5327","102.8017","70.5024","289.7296","0","999","2410","0.00022916","0.00003944","0","3230859","0 SPACEBEE-102","1 48886U 21059H   21336.29663890  .00003944  00000-0  22916-3 0  9992","2 48886  97.5327 102.8017 0010085  70.5024 289.7296 15.12641012 24103","2021-059H","48886","6906.287","95.198","535.117","521.187","0"
"GENERATED VIA SPACETRACK.ORG API","18 SPCS","48886","SPACEBEE-102","PAYLOAD","U","21059H","2021-12-02 21:24:28","844928","15.1264439","0.0010087","97.533","103.3896","68.804","291.4267","0","999","2419","0.00019445","0.00003337","0","3231265","0 SPACEBEE-102","1 48886U 21059H   21336.89200052  .00003337  00000-0  19445-3 0  9994","2 48886  97.5330 103.3896 0010087  68.8040 291.4267 15.12644390 24197","2021-059H","48886","6906.276","95.198","535.108","521.175","0"
"GENERATED VIA SPACETRACK.ORG API","18 SPCS","48886","SPACEBEE-102","PAYLOAD","U","21059H","2021-12-02 21:24:28","844928","15.1264439","0.0010087","97.533","103.3896","68.804","291.4267","0","999","2419","0.00019445","0.00003337","0","3231387","0 SPACEBEE-102","1 48886U 21059H   21336.89200052  .00003337  00000-0  19445-3 0  9994","2 48886  97.5330 103.3896 0010087  68.8040 291.4267 15.12644390 24197","2021-059H","48886","6906.276","95.198","535.108","521.175","0"
"GENERATED VIA SPACETRACK.ORG API","18 SPCS","48886","SPACEBEE-102","PAYLOAD","U","21059H","2021-12-03 08:31:17","46624","15.12647345","0.0010081","97.5331","103.8468","67.4371","292.7926","0","999","2426","0.00018012","0.00003086","0","3231740","0 SPACEBEE-102","1 48886U 21059H   21337.35505841  .00003086  00000-0  18012-3 0  9990","2 48886  97.5331 103.8468 0010081  67.4371 292.7926 15.12647345 24261","2021-059H","48886","6906.267","95.197","535.094","521.170","0"
"GENERATED VIA SPACETRACK.ORG API","18 SPCS","48886","SPACEBEE-102","PAYLOAD","U","21059H","2021-12-04 03:34:22","340352","15.12653028","0.0010059","97.5333","104.6306","65.0418","295.1856","0","999","2438","0.00018226","0.00003124","0","3232092","0 SPACEBEE-102","1 48886U 21059H   21338.14886968  .00003124  00000-0  18226-3 0  9990","2 48886  97.5333 104.6306 0010059  65.0418 295.1856 15.12653028 24381","2021-059H","48886","6906.250","95.197","535.062","521.168","0"
"GENERATED VIA SPACETRACK.ORG API","18 SPCS","48886","SPACEBEE-102","PAYLOAD","U","21059H","2021-12-04 06:44:53","211552","15.12652944","0.0010023","97.5332","104.7612","64.5217","295.7049","0","999","2440","0.00017225","0.00002949","0","3232405","0 SPACEBEE-102","1 48886U 21059H   21338.28117143  .00002949  00000-0  17225-3 0  9999","2 48886  97.5332 104.7612 0010023  64.5217 295.7049 15.12652944 24402","2021-059H","48886","6906.250","95.197","535.037","521.193","0"
"GENERATED VIA SPACETRACK.ORG API","18 SPCS","48886","SPACEBEE-102","PAYLOAD","U","21059H","2021-12-04 21:02:12","42528","15.12654432","0.0009997","97.5333","105.3491","62.73","297.4948","0","999","2449","0.00012658","0.0000215","0","3232651","0 SPACEBEE-102","1 48886U 21059H   21338.87652827  .00002150  00000-0  12658-3 0  9996","2 48886  97.5333 105.3491 0009997  62.7300 297.4948 15.12654432 24496","2021-059H","48886","6906.246","95.197","535.015","521.207","0"
"GENERATED VIA SPACETRACK.ORG API","18 SPCS","48886","SPACEBEE-102","PAYLOAD","U","21059H","2021-12-05 08:08:59","954784","15.12657559","0.000997","97.5334","105.8063","61.2827","298.9405","0","999","2456","0.00013512","0.00002299","0","3233135","0 SPACEBEE-102","1 48886U 21059H   21339.33958281  .00002299  00000-0  13512-3 0  9995","2 48886  97.5334 105.8063 0009970  61.2827 298.9405 15.12657559 24561","2021-059H","48886","6906.236","95.197","534.987","521.216","0"
"GENERATED VIA SPACETRACK.ORG API","18 SPCS","48886","SPACEBEE-102","PAYLOAD","U","21059H","2021-12-05 14:30:01","592640","15.12658849","0.0009964","97.5335","106.0676","60.5376","299.6847","0","999","2460","0.00013226","0.0000225","0","3233179","0 SPACEBEE-102","1 48886U 21059H   21339.60418510  .00002250  00000-0  13226-3 0  9990","2 48886  97.5335 106.0676 0009964  60.5376 299.6847 15.12658849 24605","2021-059H","48886","6906.232","95.197","534.979","521.216","0"
"GENERATED VIA SPACETRACK.ORG API","18 SPCS","48886","SPACEBEE-102","PAYLOAD","U","21059H","2021-12-05 22:26:18","613824","15.12660595","0.000995","97.5335","106.3942","59.5786","300.6427","0","999","2465","0.00013189","0.00002243","0","3233515","0 SPACEBEE-102","1 48886U 21059H   21339.93493766  .00002243  00000-0  13189-3 0  9992","2 48886  97.5335 106.3942 0009950  59.5786 300.6427 15.12660595 24655","2021-059H","48886","6906.227","95.197","534.964","521.220","0"
"GENERATED VIA SPACETRACK.ORG API","18 SPCS","48886","SPACEBEE-102","PAYLOAD","U","21059H","2021-12-06 14:18:52","615584","15.12662794","0.0009909","97.5335","107.0473","57.4754","302.7433","0","999","2475","0.00011761","0.00001993","0","3234035","0 SPACEBEE-102","1 48886U 21059H   21340.59644231  .00001993  00000-0  11761-3 0  9996","2 48886  97.5335 107.0473 0009909  57.4754 302.7433 15.12662794 24752","2021-059H","48886","6906.220","95.196","534.929","521.242","0"
"GENERATED VIA SPACETRACK.ORG API","18 SPCS","48886","SPACEBEE-102","PAYLOAD","U","21059H","2021-12-06 14:18:52","615584","15.12662794","0.0009909","97.5335","107.0473","57.4754","302.7433","0","999","2475","0.00011761","0.00001993","0","3234234","0 SPACEBEE-102","1 48886U 21059H   21340.59644231  .00001993  00000-0  11761-3 0  9996","2 48886  97.5335 107.0473 0009909  57.4754 302.7433 15.12662794 24752","2021-059H","48886","6906.220","95.196","534.929","521.242","0"
"GENERATED VIA SPACETRACK.ORG API","18 SPCS","48886","SPACEBEE-102","PAYLOAD","U","21059H","2021-12-07 14:07:43","414752","15.12666852","0.0009848","97.5335","108.027","54.4382","305.7766","0","999","2490","0.000116","0.00001965","0","3234816","0 SPACEBEE-102","1 48886U 21059H   21341.58869693  .00001965  00000-0  11600-3 0  9998","2 48886  97.5335 108.0270 0009848  54.4382 305.7766 15.12666852 24902","2021-059H","48886","6906.208","95.196","534.874","521.272","0"
"GENERATED VIA SPACETRACK.ORG API","18 SPCS","48886","SPACEBEE-102","PAYLOAD","U","21059H","2021-12-07 18:53:29","551776","15.12667706","0.0009823","97.5334","108.2229","53.6945","306.5191","0","999","2493","0.00011736","0.00001989","0","3234965","0 SPACEBEE-102","1 48886U 21059H   21341.78714759  .00001989  00000-0  11736-3 0  9998","2 48886  97.5334 108.2229 0009823  53.6945 306.5191 15.12667706 24939","2021-059H","48886","6906.205","95.196","534.854","521.286","0"
"GENERATED VIA SPACETRACK.ORG API","18 SPCS","48886","SPACEBEE-102","PAYLOAD","U","21059H","2021-12-07 18:53:29","551776","15.12667706","0.0009823","97.5334","108.2229","53.6945","306.5191","0","999","2493","0.00011736","0.00001989","0","3235143","0 SPACEBEE-102","1 48886U 21059H   21341.78714759  .00001989  00000-0  11736-3 0  9998","2 48886  97.5334 108.2229 0009823  53.6945 306.5191 15.12667706 24939","2021-059H","48886","6906.205","95.196","534.854","521.286","0"
"GENERATED VIA SPACETRACK.ORG API","18 SPCS","48886","SPACEBEE-102","PAYLOAD","U","21059H","2021-12-08 13:56:33","998784","15.12671055","0.0009771","97.5333","109.0066","51.2806","308.9297","0","999","2505","0.00012379","0.00002102","0","3235746","0 SPACEBEE-102","1 48886U 21059H   21342.58094906  .00002102  00000-0  12379-3 0  9994","2 48886  97.5333 109.0066 0009771  51.2806 308.9297 15.12671055 25057","2021-059H","48886","6906.195","95.196","534.808","521.312","0"
